HST                     
1 20580U 90037B   25262.29901499  .00006172  00000+0  22250-3 0  9993
2 20580  28.4668 126.5337 0002658  32.2442 327.8315 15.26370953747071
POLAR                   
1 23802U 96013A   25261.15214288  .00000183  00000+0  00000+0 0  9991
2 23802  79.5527 230.0712 6204935 218.2685  75.1820  1.29846593141329
SWAS                    
1 25560U 98071A   25262.58851248  .00004558  00000+0  31191-3 0  9990
2 25560  69.8966 204.0372 0008680 298.9223  61.1069 15.06792256456460
CXO                     
1 25867U 99040B   25264.64061064  .00000851  00000+0  00000+0 0  9998
2 25867  51.4661 125.6055 8273394 310.4746   0.4854  0.37809678 16307
XMM-NEWTON              
1 25989U 99066A   25261.10948636  .00000057  00000+0  00000+0 0  9996
2 25989  65.8246 286.5680 4788071  69.7309   0.1017  0.50134345 21647
TERRA                   
1 25994U 99068A   25262.63524286  .00000405  00000+0  92145-4 0  9997
2 25994  97.9885 317.3461 0002673  36.2528  79.7194 14.60801995370107
CLUSTER II-FM7 (SAMBA)  
1 26410U 00041A   25263.07636942  .00000909  00000+0  00000+0 0  9999
2 26410 146.0803  17.8086 8595307 233.2516   0.1184  0.44763667 19104
CLUSTER II-FM5 (RUMBA)  
1 26463U 00045A   25258.68741233  .00024788 -18713-4  00000+0 0  9999
2 26463 147.8192  92.9347 9116130 312.5692   1.6125  0.42914852 18951
CLUSTER II-FM8 (TANGO)  
1 26464U 00045B   25263.22798380  .00000957  00000+0  00000+0 0  9997
2 26464 146.3716  18.3315 8599007 233.6336   0.1044  0.44420239 19093
ODIN                    
1 26702U 01007A   25262.61137245  .00021008  00000+0  44728-3 0  9999
2 26702  97.4367 288.2199 0006098  84.8918 275.3026 15.44955949347313
TIMED                   
1 26998U 01055B   25262.56523625  .00001545  00000+0  14768-3 0  9999
2 26998  74.0677  59.5338 0001861 289.3122  70.7861 14.94235752290386
CORIOLIS                
1 27640U 03001A   25262.60180716  .00000138  00000+0  85812-4 0  9998
2 27640  98.7163 268.6331 0012889 272.7441  87.2260 14.19824237175828
SORCE                   
1 27651U 03004A   25262.58286571  .00003635  00000+0  28836-3 0  9993
2 27651  39.9928   3.1108 0018115 263.8460  96.0269 15.01252231231180
MOST                    
1 27843U 03031D   25262.59909180  .00000086  00000+0  59793-4 0  9999
2 27843  98.7091 269.0971 0009096 318.9475  41.1017 14.21233908152279
SCISAT 1                
1 27858U 03036A   25262.59163808  .00000766  00000+0  10381-3 0  9993
2 27858  73.9326 348.7861 0006164 118.4118 241.7680 14.80879432191386
SWIFT                   
1 28485U 04047A   25262.62477197  .00027862  00000+0  59949-3 0  9995
2 28485  20.5547  72.4380 0003978 194.9878 165.0446 15.42669489144671
HINODE (SOLAR-B)        
1 29479U 06041A   25262.59047809  .00000695  00000+0  12924-3 0  9991
2 29479  98.0715 277.6191 0018964  68.3737 291.9486 14.68079547 15161
SHIJIAN-6 02A (SJ-6 02A)
1 29505U 06046A   25262.62566081  .00005940  00000+0  34424-3 0  9995
2 29505  97.6756 296.8650 0003441  25.4035 334.7364 15.12574970 31308
SHIJIAN-6 02B (SJ-6 02B)
1 29506U 06046B   25262.65380378  .00000522  00000+0  46632-4 0  9998
2 29506  97.7009 289.1871 0009241 236.1280 123.9064 15.00143020 30161
FGRST (GLAST)           
1 33053U 08029A   25262.36820789  .00003490  00000+0  13561-3 0  9997
2 33053  25.5823 282.1182 0008539  18.2610 341.8233 15.21720477954501
SDO                     
1 36395U 10005A   25260.55322545 -.00000075  00000+0  00000+0 0  9999
2 36395  34.0754  90.5008 0001515 105.1470 258.6151  1.00274347 57337
CRYOSAT 2               
1 36508U 10013A   25262.57060228  .00000253  00000+0  62167-4 0  9999
2 36508  92.0190 211.8135 0002755  92.9849 267.1673 14.51908675818810
X-SAT                   
1 37389U 11015C   25262.64320348  .00000135  00000+0  75005-4 0  9994
2 37389  98.3222 248.0571 0015184  59.9368 300.3316 14.25074369749146
GCOM-W1 (SHIZUKU)       
1 38337U 12025A   25262.41538172  .00000612  00000+0  14590-3 0  9992
2 38337  98.2070 201.7846 0001529  78.1002  33.4755 14.57133900709607
NUSTAR                  
1 38358U 12031A   25262.58339120  .00018013  00000+0  11778-2 0  9990
2 38358   6.0268 258.5202 0007074  47.0992 279.3127 15.04850691  1308
NEOSSAT                 
1 39089U 13009D   25262.46444515  .00000191  00000+0  80926-4 0  9991
2 39089  98.4104  84.0729 0010586 339.4313  20.6445 14.35659506657893
BRITE-AUSTRIA           
1 39091U 13009F   25262.45703855  .00000199  00000+0  82508-4 0  9994
2 39091  98.3916  83.7450 0009701 334.8242  25.2470 14.36359378658187
IRIS                    
1 39197U 13033A   25262.50955158  .00001305  00000+0  15930-3 0  9993
2 39197  97.9484  97.5333 0025960 122.1942 238.1794 14.84828073660196
HISAKI (SPRINT-A)       
1 39253U 13049A   25262.39228158  .00000112  00000+0  65452-4 0  9993
2 39253  29.7190 156.7098 0136626 341.3978  18.1635 13.55502686594651
CASSIOPE                
1 39265U 13055A   25262.52579470  .00031591 -29637-6  47318-3 0  9994
2 39265  80.9421  30.2444 0371414 241.5471 114.7870 15.02992388626685
STSAT-3                 
1 39422U 13066G   25262.65606398  .00003563  00000+0  28793-3 0  9994
2 39422  97.5719 233.0206 0012213 231.9106 128.1017 15.00376610643605
SWARM B                 
1 39451U 13067A   25262.55763945  .00003689  00000+0  14250-3 0  9990
2 39451  87.7388  64.3474 0002692  81.1491 279.0061 15.25942611641930
SWARM A                 
1 39452U 13067B   25262.50223632  .00009192  00000+0  20041-3 0  9990
2 39452  87.3442 156.2069 0003428  87.4286 272.7364 15.44075709664384
SWARM C                 
1 39453U 13067C   25262.50213501  .00008983  00000+0  19583-3 0  9991
2 39453  87.3438 154.7965 0003435  86.7745 273.3905 15.44073661664347
BRITE-CA1 (TORONTO)     
1 40020U 14033L   25262.62364239  .00001024  00000+0  16342-3 0  9994
2 40020  97.9395  32.2781 0080876  63.5541 297.3935 14.71858956602400
OCO 2                   
1 40059U 14035A   25262.59684334  .00000515  00000+0  12434-3 0  9997
2 40059  98.2069 202.7089 0001756  86.8171 273.3228 14.57092122596642
BRITE-PL2 (HEWELIUSZ)   
1 40119U 14049B   25262.24003537  .00002519  00000+0  24766-3 0  9998
2 40119  97.8953   7.7458 0013123 289.2920  70.6880 14.92988683600992
MMS 1                   
1 40482U 15011A   25262.66668981 -.00001899  00000+0  00000+0 0  9999
2 40482  67.4604 353.0651 8593735 161.6890  51.8038  0.28443717  1351
MMS 2                   
1 40483U 15011B   25262.58339120 -.00001913  00000+0  00000+0 0  9998
2 40483  67.4642 353.0626 8596462 161.6930  43.2673  0.28434291  1358
MMS 3                   
1 40484U 15011C   25262.58339120 -.00001913  00000+0  00000+0 0  9999
2 40484  67.4677 353.0723 8595343 161.7027  43.2365  0.28434225  1355
MMS 4                   
1 40485U 15011D   25262.58339120 -.00001914  00000+0  00000+0 0  9991
2 40485  67.4581 353.0580 8595645 161.7155  43.1922  0.28428516  1352
ASTROSAT                
1 40930U 15052A   25262.04893734  .00001913  00000+0  15469-3 0  9995
2 40930   5.9975 305.9441 0007630 126.3877 233.6956 14.81656809539536
DAMPE                   
1 41173U 15078A   25262.59524413  .00001548  00000+0  56351-4 0  9998
2 41173  97.4538 261.9812 0011122 323.2285  36.8192 15.29743168543169
PISAT                   
1 41784U 16059B   25262.59368138  .00001121  00000+0  20185-3 0  9998
2 41784  97.8183 269.8864 0029216 352.9542   7.1249 14.68160779480021
HXMT (HUIYAN)           
1 42758U 17034A   25262.36556278  .00004945  00000+0  27005-3 0  9998
2 42758  43.0137 247.3449 0034694 234.6938 125.0663 15.14795921456530
FLYING LAPTOP           
1 42831U 17042G   25262.65626890  .00002324  00000+0  19543-3 0  9996
2 42831  97.4153  65.2250 0010375 328.9683  31.0927 14.99155689445893
ZHANGHENG 1-01 (CSES-1) 
1 43194U 18015C   25262.19091596  .00011070  00000+0  49663-3 0  9992
2 43194  97.6605  57.9237 0016325 164.6960 195.4773 15.21260180423458
SALSAT                  
1 46495U 20068K   25262.49299546  .00007740  00000+0  32049-3 0  9997
2 46495  97.8707 245.3864 0011710 158.0993 202.0746 15.24171121274048
IXPE                    
1 49954U 21121A   25262.58339120  .00011831  00000+0  71843-3 0  9995
2 49954   0.2298 198.9447 0008286 311.2956 123.4040 15.06479576  5770
